{"type": "FeatureCollection", "features": [ {"type": "Feature", "properties": {"norad_id": 66819, "name": "STARLINK-35989", "group": "last-30-days", "lat": 19.568706618626962, "lon": -157.43891666265506, "alt_km": 412.5315564693401, "timestamp": "2025-12-24T16:52:40.179301+00:00", "meta": {"OBJECT_NAME": "STARLINK-35989", "OBJECT_ID": "2025-278AE", "EPOCH": "2025-12-24T06:00:02.000160", "MEAN_MOTION": 15.50534252, "ECCENTRICITY": 0.00015023, "INCLINATION": 43.0002, "RA_OF_ASC_NODE": 182.7882, "ARG_OF_PERICENTER": 263.7258, "MEAN_ANOMALY": 112.8636, "EPHEMERIS_TYPE": 0, "CLASSIFICATION_TYPE": "U", "NORAD_CAT_ID": 66819, "ELEMENT_SET_NO": 999, "REV_AT_EPOCH": 480, "BSTAR": 0.00057327945, "MEAN_MOTION_DOT": 0.0003338, "MEAN_MOTION_DDOT": 0}, "tle": {"line1": "1 66819U 25278AE  25358.25002315  .00033380  00000+0  57328-3 0  9999", "line2": "2 66819  43.0002 182.7882 0001502 263.7258 112.8636 15.50534252  4809"}}, "geometry": {"type": "Point", "coordinates": [-157.43891666265506, 19.568706618626962]}}, {"type": "Feature", "properties": {"norad_id": 66820, "name": "KOMPSAT-7", "group": "last-30-days", "lat": 57.019436747881095, "lon": 136.30950793847643, "alt_km": 560.8551825603827, "timestamp": "2025-12-24T16:52:40.179313+00:00", "meta": {"OBJECT_NAME": "KOMPSAT-7", "OBJECT_ID": "2025-279A", "EPOCH": "2025-12-24T06:43:58.256832", "MEAN_MOTION": 15.006679, "ECCENTRICITY": 0.00111867, "INCLINATION": 97.6458, "RA_OF_ASC_NODE": 303.9466, "ARG_OF_PERICENTER": 224.55, "MEAN_ANOMALY": 135.4826, "EPHEMERIS_TYPE": 0, "CLASSIFICATION_TYPE": "U", "NORAD_CAT_ID": 66820, "ELEMENT_SET_NO": 999, "REV_AT_EPOCH": 338, "BSTAR": 0.00025168819, "MEAN_MOTION_DOT": 3.129e-05, "MEAN_MOTION_DDOT": 0}, "tle": {"line1": "1 66820U 25279A   25358.28053538  .00003129  00000+0  25169-3 0  9994", "line2": "2 66820  97.6458 303.9466 0011186 224.5500 135.4826 15.00667900  3386"}}, "geometry": {"type": "Point", "coordinates": [136.30950793847643, 57.019436747881095]}}, {"type": "Feature", "properties": {"norad_id": 66821, "name": "STARLINK-35966", "group": "last-30-days", "lat": -63.76568336065453, "lon": 33.30220798333052, "alt_km": 413.4041461438055, "timestamp": "2025-12-24T16:52:40.179325+00:00", "meta": {"OBJECT_NAME": "STARLINK-35966", "OBJECT_ID": "2025-280A", "EPOCH": "2025-12-24T06:30:55.929024", "MEAN_MOTION": 15.52584755, "ECCENTRICITY": 0.00034391, "INCLINATION": 70.0005, "RA_OF_ASC_NODE": 166.8315, "ARG_OF_PERICENTER": 272.5192, "MEAN_ANOMALY": 87.5601, "EPHEMERIS_TYPE": 0, "CLASSIFICATION_TYPE": "U", "NORAD_CAT_ID": 66821, "ELEMENT_SET_NO": 999, "REV_AT_EPOCH": 472, "BSTAR": 0.00099538982, "MEAN_MOTION_DOT": 0.00061693, "MEAN_MOTION_DDOT": 0}, "tle": {"line1": "1 66821U 25280A   25358.27148066  .00061693  00000+0  99539-3 0  9999", "line2": "2 66821  70.0005 166.8315 0003439 272.5192  87.5601 15.52584755  4721"}}, "geometry": {"type": "Point", "coordinates": [33.30220798333052, -63.76568336065453]}}, {"type": "Feature", "properties": {"norad_id": 66822, "name": "STARLINK-35958", "group": "last-30-days", "lat": -64.96027133100436, "lon": 36.878116420492496, "alt_km": 413.2796591902097, "timestamp": "2025-12-24T16:52:40.179335+00:00", "meta": {"OBJECT_NAME": "STARLINK-35958", "OBJECT_ID": "2025-280B", "EPOCH": "2025-12-24T01:52:06.335040", "MEAN_MOTION": 15.525603, "ECCENTRICITY": 0.00034842, "INCLINATION": 70.0003, "RA_OF_ASC_NODE": 167.36, "ARG_OF_PERICENTER": 274.0507, "MEAN_ANOMALY": 86.0281, "EPHEMERIS_TYPE": 0, "CLASSIFICATION_TYPE": "U", "NORAD_CAT_ID": 66822, "ELEMENT_SET_NO": 999, "REV_AT_EPOCH": 469, "BSTAR": 0.001424919, "MEAN_MOTION_DOT": 0.00088611, "MEAN_MOTION_DDOT": 0}, "tle": {"line1": "1 66822U 25280B   25358.07785110  .00088611  00000+0  14249-2 0  9998", "line2": "2 66822  70.0003 167.3600 0003484 274.0507  86.0281 15.52560300  4694"}}, "geometry": {"type": "Point", "coordinates": [36.878116420492496, -64.96027133100436]}}, {"type": "Feature", "properties": {"norad_id": 66823, "name": "STARLINK-35957", "group": "last-30-days", "lat": -66.00266797473287, "lon": 40.54584393814526, "alt_km": 413.3206644723941, "timestamp": "2025-12-24T16:52:40.179348+00:00", "meta": {"OBJECT_NAME": "STARLINK-35957", "OBJECT_ID": "2025-280C", "EPOCH": "2025-12-24T06:29:57.095808", "MEAN_MOTION": 15.52566085, "ECCENTRICITY": 0.00034442, "INCLINATION": 70.0003, "RA_OF_ASC_NODE": 166.8283, "ARG_OF_PERICENTER": 272.9377, "MEAN_ANOMALY": 87.1416, "EPHEMERIS_TYPE": 0, "CLASSIFICATION_TYPE": "U", "NORAD_CAT_ID": 66823, "ELEMENT_SET_NO": 999, "REV_AT_EPOCH": 472, "BSTAR": 0.0017286911, "MEAN_MOTION_DOT": 0.00107821, "MEAN_MOTION_DDOT": 0}, "tle": {"line1": "1 66823U 25280C   25358.27079972  .00107821  00000+0  17287-2 0  9993", "line2": "2 66823  70.0003 166.8283 0003444 272.9377  87.1416 15.52566085  4726"}}, "geometry": {"type": "Point", "coordinates": [40.54584393814526, -66.00266797473287]}}, {"type": "Feature", "properties": {"norad_id": 66824, "name": "STARLINK-35896", "group": "last-30-days", "lat": -66.97060313554428, "lon": 44.60555565119942, "alt_km": 413.51894063282, "timestamp": "2025-12-24T16:52:40.179358+00:00", "meta": {"OBJECT_NAME": "STARLINK-35896", "OBJECT_ID": "2025-280D", "EPOCH": "2025-12-24T06:29:27.585888", "MEAN_MOTION": 15.52557557, "ECCENTRICITY": 0.0003315, "INCLINATION": 70.0003, "RA_OF_ASC_NODE": 166.8271, "ARG_OF_PERICENTER": 280.2614, "MEAN_ANOMALY": 79.8199, "EPHEMERIS_TYPE": 0, "CLASSIFICATION_TYPE": "U", "NORAD_CAT_ID": 66824, "ELEMENT_SET_NO": 999, "REV_AT_EPOCH": 472, "BSTAR": 0.0016564397, "MEAN_MOTION_DOT": 0.00103214, "MEAN_MOTION_DDOT": 0}, "tle": {"line1": "1 66824U 25280D   25358.27045817  .00103214  00000+0  16564-2 0  9994", "line2": "2 66824  70.0003 166.8271 0003315 280.2614  79.8199 15.52557557  4727"}}, "geometry": {"type": "Point", "coordinates": [44.60555565119942, -66.97060313554428]}}, {"type": "Feature", "properties": {"norad_id": 66825, "name": "STARLINK-35476", "group": "last-30-days", "lat": -67.85038784150997, "lon": 49.116064241306276, "alt_km": 413.2730605751958, "timestamp": "2025-12-24T16:52:40.179368+00:00", "meta": {"OBJECT_NAME": "STARLINK-35476", "OBJECT_ID": "2025-280E", "EPOCH": "2025-12-24T06:28:57.753696", "MEAN_MOTION": 15.52569314, "ECCENTRICITY": 0.00035478, "INCLINATION": 70.0004, "RA_OF_ASC_NODE": 166.8256, "ARG_OF_PERICENTER": 276.765, "MEAN_ANOMALY": 83.3133, "EPHEMERIS_TYPE": 0, "CLASSIFICATION_TYPE": "U", "NORAD_CAT_ID": 66825, "ELEMENT_SET_NO": 999, "REV_AT_EPOCH": 472, "BSTAR": 0.0016641399, "MEAN_MOTION_DOT": 0.00103748, "MEAN_MOTION_DDOT": 0}, "tle": {"line1": "1 66825U 25280E   25358.27011289  .00103748  00000+0  16641-2 0  9999", "line2": "2 66825  70.0004 166.8256 0003547 276.7650  83.3133 15.52569314  4721"}}, "geometry": {"type": "Point", "coordinates": [49.116064241306276, -67.85038784150997]}}, {"type": "Feature", "properties": {"norad_id": 66826, "name": "STARLINK-35898", "group": "last-30-days", "lat": -68.58626997827204, "lon": 53.874765148624505, "alt_km": 413.25226015640874, "timestamp": "2025-12-24T16:52:40.179378+00:00", "meta": {"OBJECT_NAME": "STARLINK-35898", "OBJECT_ID": "2025-280F", "EPOCH": "2025-12-24T06:28:28.202304", "MEAN_MOTION": 15.52563025, "ECCENTRICITY": 0.00034665, "INCLINATION": 70.0005, "RA_OF_ASC_NODE": 166.8242, "ARG_OF_PERICENTER": 272.4316, "MEAN_ANOMALY": 87.6474, "EPHEMERIS_TYPE": 0, "CLASSIFICATION_TYPE": "U", "NORAD_CAT_ID": 66826, "ELEMENT_SET_NO": 999, "REV_AT_EPOCH": 472, "BSTAR": 0.0019255513, "MEAN_MOTION_DOT": 0.00120295, "MEAN_MOTION_DDOT": 0}, "tle": {"line1": "1 66826U 25280F   25358.26977086  .00120295  00000+0  19256-2 0  9996", "line2": "2 66826  70.0005 166.8242 0003466 272.4316  87.6474 15.52563025  4728"}}, "geometry": {"type": "Point", "coordinates": [53.874765148624505, -68.58626997827204]}}, {"type": "Feature", "properties": {"norad_id": 66827, "name": "STARLINK-35959", "group": "last-30-days", "lat": -69.17213738524138, "lon": 58.855154462731726, "alt_km": 413.56564683066335, "timestamp": "2025-12-24T16:52:40.179388+00:00", "meta": {"OBJECT_NAME": "STARLINK-35959", "OBJECT_ID": "2025-280G", "EPOCH": "2025-12-24T06:27:58.651776", "MEAN_MOTION": 15.52560214, "ECCENTRICITY": 0.00031561, "INCLINATION": 70.0004, "RA_OF_ASC_NODE": 166.8226, "ARG_OF_PERICENTER": 278.0968, "MEAN_ANOMALY": 81.9861, "EPHEMERIS_TYPE": 0, "CLASSIFICATION_TYPE": "U", "NORAD_CAT_ID": 66827, "ELEMENT_SET_NO": 999, "REV_AT_EPOCH": 472, "BSTAR": 0.0015279462, "MEAN_MOTION_DOT": 0.00095104, "MEAN_MOTION_DDOT": 0}, "tle": {"line1": "1 66827U 25280G   25358.26942884  .00095104  00000+0  15279-2 0  9996", "line2": "2 66827  70.0004 166.8226 0003156 278.0968  81.9861 15.52560214  4725"}}, "geometry": {"type": "Point", "coordinates": [58.855154462731726, -69.17213738524138]}}, {"type": "Feature", "properties": {"norad_id": 66828, "name": "STARLINK-35982", "group": "last-30-days", "lat": -69.88466467442136, "lon": 69.59779357768518, "alt_km": 413.33134255394725, "timestamp": "2025-12-24T16:52:40.179417+00:00", "meta": {"OBJECT_NAME": "STARLINK-35982", "OBJECT_ID": "2025-280H", "EPOCH": "2025-12-24T06:26:59.313120", "MEAN_MOTION": 15.52556813, "ECCENTRICITY": 0.00034789, "INCLINATION": 70.0004, "RA_OF_ASC_NODE": 166.8199, "ARG_OF_PERICENTER": 274.0348, "MEAN_ANOMALY": 86.0441, "EPHEMERIS_TYPE": 0, "CLASSIFICATION_TYPE": "U", "NORAD_CAT_ID": 66828, "ELEMENT_SET_NO": 999, "REV_AT_EPOCH": 472, "BSTAR": 0.001436854, "MEAN_MOTION_DOT": 0.00089352, "MEAN_MOTION_DDOT": 0}, "tle": {"line1": "1 66828U 25280H   25358.26874205  .00089352  00000+0  14369-2 0  9995", "line2": "2 66828  70.0004 166.8199 0003478 274.0348  86.0441 15.52556813  4720"}}, "geometry": {"type": "Point", "coordinates": [69.59779357768518, -69.88466467442136]}}]}